ONEWEB-0668             
1 56711U 23068B   24249.30264196  .00000308  00000+0  77120-3 0  9991
2 56711  87.9164 358.1854 0002362  94.6540 265.4861 13.16592555 66266
ONEWEB-0676             
1 56712U 23068C   24249.81481680 -.00000352  00000+0 -95332-3 0  9993
2 56712  87.9174 358.0953 0001483  88.2325 271.8975 13.16595202 66955
ONEWEB-0677             
1 56713U 23068D   24249.87526778  .00000029  00000+0  40426-4 0  9992
2 56713  87.9211  43.6175 0001702  83.0225 277.1102 13.20773854 64794
ONEWEB-0678             
1 56714U 23068E   24249.32616721  .00000086  00000+0  19384-3 0  9992
2 56714  87.9084  28.4815 0001488 106.6570 253.4723 13.15550852 63847
ONEWEB-0679             
1 56715U 23068F   24249.85995453  .00000072  00000+0  15520-3 0  9996
2 56715  87.9168 358.0873 0001986  79.2224 280.9131 13.16593409 66983
ONEWEB-0680             
1 56716U 23068G   24249.31930553  .00000183  00000+0  41264-3 0  9995
2 56716  87.9355  13.4042 0002556  90.3111 269.8316 13.21824143 65242
ONEWEB-0681             
1 56717U 23068H   24249.32952856  .00000098  00000+0  20462-3 0  9999
2 56717  87.9349  13.3812 0001256  57.5749 302.5506 13.21829484 65236
ONEWEB-0682             
1 56718U 23068J   24249.80865769 -.00000081  00000+0 -25000-3 0  9996
2 56718  87.9079  28.4249 0002183  86.2250 273.9130 13.15550181 64774
